{
  "links" : {
    "next" : "https://api.nasa.gov/neo/rest/v1/feed?start_date=2000-04-16&end_date=2000-04-16&detailed=true&api_key=t0TVs3DtDT2H8Oy2Zy8m2eVrNsAVKAexjcZXUckd",
    "prev" : "https://api.nasa.gov/neo/rest/v1/feed?start_date=2000-04-14&end_date=2000-04-14&detailed=true&api_key=t0TVs3DtDT2H8Oy2Zy8m2eVrNsAVKAexjcZXUckd",
    "self" : "https://api.nasa.gov/neo/rest/v1/feed?start_date=2000-04-15&end_date=2000-04-15&detailed=true&api_key=t0TVs3DtDT2H8Oy2Zy8m2eVrNsAVKAexjcZXUckd"
  },
  "element_count" : 6,
  "near_earth_objects" : {
    "2000-04-15" : [ {
      "links" : {
        "self" : "https://api.nasa.gov/neo/rest/v1/neo/3653922?api_key=t0TVs3DtDT2H8Oy2Zy8m2eVrNsAVKAexjcZXUckd"
      },
      "neo_reference_id" : "3653922",
      "name" : "(2013 WW44)",
      "nasa_jpl_url" : "http://ssd.jpl.nasa.gov/sbdb.cgi?sstr=3653922",
      "absolute_magnitude_h" : 20.4,
      "estimated_diameter" : {
        "kilometers" : {
          "estimated_diameter_min" : 0.2210828104,
          "estimated_diameter_max" : 0.4943561926
        },
        "meters" : {
          "estimated_diameter_min" : 221.0828103591,
          "estimated_diameter_max" : 494.3561926196
        },
        "miles" : {
          "estimated_diameter_min" : 0.137374447,
          "estimated_diameter_max" : 0.3071786018
        },
        "feet" : {
          "estimated_diameter_min" : 725.3373275385,
          "estimated_diameter_max" : 1621.9035709942
        }
      },
      "is_potentially_hazardous_asteroid" : false,
      "close_approach_data" : [ {
        "close_approach_date" : "2000-04-15",
        "epoch_date_close_approach" : 955782000000,
        "relative_velocity" : {
          "kilometers_per_second" : "17.5829909805",
          "kilometers_per_hour" : "63298.7675297881",
          "miles_per_hour" : "39331.3925242731"
        },
        "miss_distance" : {
          "astronomical" : "0.3770736512",
          "lunar" : "146.681640625",
          "kilometers" : "56409416",
          "miles" : "35051184"
        },
        "orbiting_body" : "Earth"
      } ],
      "orbital_data" : {
        "orbit_id" : "22",
        "orbit_determination_date" : "2017-04-06 08:43:30",
        "orbit_uncertainty" : "2",
        "minimum_orbit_intersection" : ".298033",
        "jupiter_tisserand_invariant" : "5.693",
        "epoch_osculation" : "2458000.5",
        "eccentricity" : ".3231490747897462",
        "semi_major_axis" : "1.056490693975326",
        "inclination" : "25.74681061935532",
        "ascending_node_longitude" : "71.54460309364013",
        "orbital_period" : "396.6403939737443",
        "perihelion_distance" : ".7150867036932226",
        "perihelion_argument" : "176.2300661551222",
        "aphelion_distance" : "1.39789468425743",
        "perihelion_time" : "2458013.985377306413",
        "mean_anomaly" : "347.7603594992649",
        "mean_motion" : ".9076231404303976",
        "equinox" : "J2000"
      }
    }, {
      "links" : {
        "self" : "https://api.nasa.gov/neo/rest/v1/neo/3714121?api_key=t0TVs3DtDT2H8Oy2Zy8m2eVrNsAVKAexjcZXUckd"
      },
      "neo_reference_id" : "3714121",
      "name" : "(2015 FE36)",
      "nasa_jpl_url" : "http://ssd.jpl.nasa.gov/sbdb.cgi?sstr=3714121",
      "absolute_magnitude_h" : 23.1,
      "estimated_diameter" : {
        "kilometers" : {
          "estimated_diameter_min" : 0.063760979,
          "estimated_diameter_max" : 0.1425738833
        },
        "meters" : {
          "estimated_diameter_min" : 63.7609789875,
          "estimated_diameter_max" : 142.5738833281
        },
        "miles" : {
          "estimated_diameter_min" : 0.0396192233,
          "estimated_diameter_max" : 0.0885912765
        },
        "feet" : {
          "estimated_diameter_min" : 209.1895703015,
          "estimated_diameter_max" : 467.7620993781
        }
      },
      "is_potentially_hazardous_asteroid" : false,
      "close_approach_data" : [ {
        "close_approach_date" : "2000-04-15",
        "epoch_date_close_approach" : 955782000000,
        "relative_velocity" : {
          "kilometers_per_second" : "16.5166583079",
          "kilometers_per_hour" : "59459.9699083183",
          "miles_per_hour" : "36946.1129688659"
        },
        "miss_distance" : {
          "astronomical" : "0.4524541923",
          "lunar" : "176.0046691895",
          "kilometers" : "67686184",
          "miles" : "42058244"
        },
        "orbiting_body" : "Earth"
      } ],
      "orbital_data" : {
        "orbit_id" : "13",
        "orbit_determination_date" : "2017-04-06 08:34:52",
        "orbit_uncertainty" : "6",
        "minimum_orbit_intersection" : ".156829",
        "jupiter_tisserand_invariant" : "5.338",
        "epoch_osculation" : "2458000.5",
        "eccentricity" : ".0583533889101139",
        "semi_major_axis" : "1.164349710157903",
        "inclination" : "23.0910320432077",
        "ascending_node_longitude" : "11.90106025147083",
        "orbital_period" : "458.9058415312469",
        "perihelion_distance" : "1.096405958693681",
        "perihelion_argument" : "267.900016431141",
        "aphelion_distance" : "1.232293461622126",
        "perihelion_time" : "2458133.985469518322",
        "mean_anomaly" : "255.2840328502903",
        "mean_motion" : ".784474651267841",
        "equinox" : "J2000"
      }
    }, {
      "links" : {
        "self" : "https://api.nasa.gov/neo/rest/v1/neo/3729136?api_key=t0TVs3DtDT2H8Oy2Zy8m2eVrNsAVKAexjcZXUckd"
      },
      "neo_reference_id" : "3729136",
      "name" : "(2015 TN21)",
      "nasa_jpl_url" : "http://ssd.jpl.nasa.gov/sbdb.cgi?sstr=3729136",
      "absolute_magnitude_h" : 27.2,
      "estimated_diameter" : {
        "kilometers" : {
          "estimated_diameter_min" : 0.0096506147,
          "estimated_diameter_max" : 0.0215794305
        },
        "meters" : {
          "estimated_diameter_min" : 9.6506146958,
          "estimated_diameter_max" : 21.5794304844
        },
        "miles" : {
          "estimated_diameter_min" : 0.0059966121,
          "estimated_diameter_max" : 0.0134088323
        },
        "feet" : {
          "estimated_diameter_min" : 31.6621227185,
          "estimated_diameter_max" : 70.7986587106
        }
      },
      "is_potentially_hazardous_asteroid" : false,
      "close_approach_data" : [ {
        "close_approach_date" : "2000-04-15",
        "epoch_date_close_approach" : 955782000000,
        "relative_velocity" : {
          "kilometers_per_second" : "27.0966857203",
          "kilometers_per_hour" : "97548.0685929835",
          "miles_per_hour" : "60612.5762876791"
        },
        "miss_distance" : {
          "astronomical" : "0.4775112665",
          "lunar" : "185.7518768311",
          "kilometers" : "71434664",
          "miles" : "44387444"
        },
        "orbiting_body" : "Earth"
      } ],
      "orbital_data" : {
        "orbit_id" : "6",
        "orbit_determination_date" : "2017-04-06 08:31:34",
        "orbit_uncertainty" : "7",
        "minimum_orbit_intersection" : ".00259733",
        "jupiter_tisserand_invariant" : "4.768",
        "epoch_osculation" : "2458000.5",
        "eccentricity" : ".4621577921881261",
        "semi_major_axis" : "1.345539441158408",
        "inclination" : "2.226025127914395",
        "ascending_node_longitude" : "13.63848953782557",
        "orbital_period" : "570.0895440127298",
        "perihelion_distance" : ".7236879037305929",
        "perihelion_argument" : "86.3871505204099",
        "aphelion_distance" : "1.967390978586222",
        "perihelion_time" : "2457930.537596622009",
        "mean_anomaly" : "44.17984065940738",
        "mean_motion" : ".6314797452099233",
        "equinox" : "J2000"
      }
    } ]
  }
}